{"type": "FeatureCollection", "features": [ {"type": "Feature", "properties": {"norad_id": 66880, "name": "STARLINK-35844", "group": "last-30-days", "lat": 29.780400780698383, "lon": 48.16844426216583, "alt_km": 350.01400148383254, "timestamp": "2025-12-22T22:44:19.652043+00:00", "meta": {"OBJECT_NAME": "STARLINK-35844", "OBJECT_ID": "2025-283C", "EPOCH": "2025-12-22T20:00:01.999008", "MEAN_MOTION": 15.72148746, "ECCENTRICITY": 0.0001306, "INCLINATION": 53.1587, "RA_OF_ASC_NODE": 23.3253, "ARG_OF_PERICENTER": 77.1257, "MEAN_ANOMALY": 35.3219, "EPHEMERIS_TYPE": 0, "CLASSIFICATION_TYPE": "U", "NORAD_CAT_ID": 66880, "ELEMENT_SET_NO": 999, "REV_AT_EPOCH": 405, "BSTAR": -0.016463, "MEAN_MOTION_DOT": -0.01956485, "MEAN_MOTION_DDOT": 0}, "tle": {"line1": "1 66880U 25283C   25356.83335647 -.01956485  00000+0 -16463-1 0  9998", "line2": "2 66880  53.1587  23.3253 0001306  77.1257  35.3219 15.72148746  4053"}}, "geometry": {"type": "Point", "coordinates": [48.16844426216583, 29.780400780698383]}}, {"type": "Feature", "properties": {"norad_id": 66881, "name": "STARLINK-35860", "group": "last-30-days", "lat": 32.521451671980266, "lon": 51.31018124914283, "alt_km": 349.7513587514004, "timestamp": "2025-12-22T22:44:19.652053+00:00", "meta": {"OBJECT_NAME": "STARLINK-35860", "OBJECT_ID": "2025-283D", "EPOCH": "2025-12-22T20:00:01.999008", "MEAN_MOTION": 15.72143019, "ECCENTRICITY": 9.46e-05, "INCLINATION": 53.1588, "RA_OF_ASC_NODE": 23.3167, "ARG_OF_PERICENTER": 79.5052, "MEAN_ANOMALY": 36.7812, "EPHEMERIS_TYPE": 0, "CLASSIFICATION_TYPE": "U", "NORAD_CAT_ID": 66881, "ELEMENT_SET_NO": 999, "REV_AT_EPOCH": 405, "BSTAR": -0.016404, "MEAN_MOTION_DOT": -0.01949597, "MEAN_MOTION_DDOT": 0}, "tle": {"line1": "1 66881U 25283D   25356.83335647 -.01949597  00000+0 -16404-1 0  9990", "line2": "2 66881  53.1588  23.3167 0000946  79.5052  36.7812 15.72143019  4059"}}, "geometry": {"type": "Point", "coordinates": [51.31018124914283, 32.521451671980266]}}, {"type": "Feature", "properties": {"norad_id": 66882, "name": "STARLINK-35912", "group": "last-30-days", "lat": 33.858318117969354, "lon": 52.950280941951625, "alt_km": 349.266235437256, "timestamp": "2025-12-22T22:44:19.652063+00:00", "meta": {"OBJECT_NAME": "STARLINK-35912", "OBJECT_ID": "2025-283E", "EPOCH": "2025-12-22T20:00:01.999008", "MEAN_MOTION": 15.72140305, "ECCENTRICITY": 0.0001297, "INCLINATION": 53.1587, "RA_OF_ASC_NODE": 23.314, "ARG_OF_PERICENTER": 69.7661, "MEAN_ANOMALY": 48.4367, "EPHEMERIS_TYPE": 0, "CLASSIFICATION_TYPE": "U", "NORAD_CAT_ID": 66882, "ELEMENT_SET_NO": 999, "REV_AT_EPOCH": 405, "BSTAR": -0.01638, "MEAN_MOTION_DOT": -0.01947076, "MEAN_MOTION_DDOT": 0}, "tle": {"line1": "1 66882U 25283E   25356.83335647 -.01947076  00000+0 -16380-1 0  9994", "line2": "2 66882  53.1587  23.3140 0001297  69.7661  48.4367 15.72140305  4057"}}, "geometry": {"type": "Point", "coordinates": [52.950280941951625, 33.858318117969354]}}, {"type": "Feature", "properties": {"norad_id": 66883, "name": "STARLINK-35947", "group": "last-30-days", "lat": 35.17584236577896, "lon": 54.644289259772336, "alt_km": 349.1135434915259, "timestamp": "2025-12-22T22:44:19.652075+00:00", "meta": {"OBJECT_NAME": "STARLINK-35947", "OBJECT_ID": "2025-283F", "EPOCH": "2025-12-22T20:00:01.999008", "MEAN_MOTION": 15.72137026, "ECCENTRICITY": 0.0001222, "INCLINATION": 53.1588, "RA_OF_ASC_NODE": 23.3095, "ARG_OF_PERICENTER": 72.905, "MEAN_ANOMALY": 47.2184, "EPHEMERIS_TYPE": 0, "CLASSIFICATION_TYPE": "U", "NORAD_CAT_ID": 66883, "ELEMENT_SET_NO": 999, "REV_AT_EPOCH": 410, "BSTAR": -0.016349, "MEAN_MOTION_DOT": -0.01943555, "MEAN_MOTION_DDOT": 0}, "tle": {"line1": "1 66883U 25283F   25356.83335647 -.01943555  00000+0 -16349-1 0  9998", "line2": "2 66883  53.1588  23.3095 0001222  72.9050  47.2184 15.72137026  4100"}}, "geometry": {"type": "Point", "coordinates": [54.644289259772336, 35.17584236577896]}}, {"type": "Feature", "properties": {"norad_id": 66884, "name": "STARLINK-36057", "group": "last-30-days", "lat": 37.72851310379622, "lon": 58.192892654921366, "alt_km": 348.7168708290301, "timestamp": "2025-12-22T22:44:19.652087+00:00", "meta": {"OBJECT_NAME": "STARLINK-36057", "OBJECT_ID": "2025-283G", "EPOCH": "2025-12-22T20:00:01.999008", "MEAN_MOTION": 15.72137514, "ECCENTRICITY": 0.0001274, "INCLINATION": 53.1586, "RA_OF_ASC_NODE": 23.3009, "ARG_OF_PERICENTER": 83.167, "MEAN_ANOMALY": 40.7864, "EPHEMERIS_TYPE": 0, "CLASSIFICATION_TYPE": "U", "NORAD_CAT_ID": 66884, "ELEMENT_SET_NO": 999, "REV_AT_EPOCH": 405, "BSTAR": -0.016323, "MEAN_MOTION_DOT": -0.01940906, "MEAN_MOTION_DDOT": 0}, "tle": {"line1": "1 66884U 25283G   25356.83335647 -.01940906  00000+0 -16323-1 0  9998", "line2": "2 66884  53.1586  23.3009 0001274  83.1670  40.7864 15.72137514  4052"}}, "geometry": {"type": "Point", "coordinates": [58.192892654921366, 37.72851310379622]}}, {"type": "Feature", "properties": {"norad_id": 66885, "name": "STARLINK-35954", "group": "last-30-days", "lat": 36.46571754789387, "lon": 56.389644741880545, "alt_km": 348.85614070610063, "timestamp": "2025-12-22T22:44:19.652097+00:00", "meta": {"OBJECT_NAME": "STARLINK-35954", "OBJECT_ID": "2025-283H", "EPOCH": "2025-12-22T20:00:01.999008", "MEAN_MOTION": 15.72148372, "ECCENTRICITY": 0.000126, "INCLINATION": 53.1588, "RA_OF_ASC_NODE": 23.3052, "ARG_OF_PERICENTER": 73.7245, "MEAN_ANOMALY": 48.3099, "EPHEMERIS_TYPE": 0, "CLASSIFICATION_TYPE": "U", "NORAD_CAT_ID": 66885, "ELEMENT_SET_NO": 999, "REV_AT_EPOCH": 405, "BSTAR": -0.016476, "MEAN_MOTION_DOT": -0.01957762, "MEAN_MOTION_DDOT": 0}, "tle": {"line1": "1 66885U 25283H   25356.83335647 -.01957762  00000+0 -16476-1 0  9996", "line2": "2 66885  53.1588  23.3052 0001260  73.7245  48.3099 15.72148372  4059"}}, "geometry": {"type": "Point", "coordinates": [56.389644741880545, 36.46571754789387]}}, {"type": "Feature", "properties": {"norad_id": 66886, "name": "STARLINK-35900", "group": "last-30-days", "lat": 38.97776568105054, "lon": 60.08103962236195, "alt_km": 348.5133239990628, "timestamp": "2025-12-22T22:44:19.652108+00:00", "meta": {"OBJECT_NAME": "STARLINK-35900", "OBJECT_ID": "2025-283J", "EPOCH": "2025-12-22T20:00:01.999008", "MEAN_MOTION": 15.72265515, "ECCENTRICITY": 0.0001217, "INCLINATION": 53.1588, "RA_OF_ASC_NODE": 23.2968, "ARG_OF_PERICENTER": 102.877, "MEAN_ANOMALY": 22.9747, "EPHEMERIS_TYPE": 0, "CLASSIFICATION_TYPE": "U", "NORAD_CAT_ID": 66886, "ELEMENT_SET_NO": 999, "REV_AT_EPOCH": 405, "BSTAR": -0.018077, "MEAN_MOTION_DOT": -0.02133281, "MEAN_MOTION_DDOT": 0}, "tle": {"line1": "1 66886U 25283J   25356.83335647 -.02133281  00000+0 -18077-1 0  9999", "line2": "2 66886  53.1588  23.2968 0001217 102.8770  22.9747 15.72265515  4051"}}, "geometry": {"type": "Point", "coordinates": [60.08103962236195, 38.97776568105054]}}, {"type": "Feature", "properties": {"norad_id": 66887, "name": "STARLINK-35925", "group": "last-30-days", "lat": 40.17211188402363, "lon": 61.99862081907719, "alt_km": 348.2158189444308, "timestamp": "2025-12-22T22:44:19.652118+00:00", "meta": {"OBJECT_NAME": "STARLINK-35925", "OBJECT_ID": "2025-283K", "EPOCH": "2025-12-22T20:00:01.999008", "MEAN_MOTION": 15.72148704, "ECCENTRICITY": 0.000125, "INCLINATION": 53.1587, "RA_OF_ASC_NODE": 23.293, "ARG_OF_PERICENTER": 68.935, "MEAN_ANOMALY": 58.8477, "EPHEMERIS_TYPE": 0, "CLASSIFICATION_TYPE": "U", "NORAD_CAT_ID": 66887, "ELEMENT_SET_NO": 999, "REV_AT_EPOCH": 405, "BSTAR": -0.016467, "MEAN_MOTION_DOT": -0.01956816, "MEAN_MOTION_DDOT": 0}, "tle": {"line1": "1 66887U 25283K   25356.83335647 -.01956816  00000+0 -16467-1 0  9997", "line2": "2 66887  53.1587  23.2930 0001250  68.9350  58.8477 15.72148704  4051"}}, "geometry": {"type": "Point", "coordinates": [61.99862081907719, 40.17211188402363]}}, {"type": "Feature", "properties": {"norad_id": 66888, "name": "STARLINK-35919", "group": "last-30-days", "lat": 41.34501003228751, "lon": 64.00291947818994, "alt_km": 347.9941064096147, "timestamp": "2025-12-22T22:44:19.652128+00:00", "meta": {"OBJECT_NAME": "STARLINK-35919", "OBJECT_ID": "2025-283L", "EPOCH": "2025-12-22T20:00:01.999008", "MEAN_MOTION": 15.721396, "ECCENTRICITY": 0.0001352, "INCLINATION": 53.159, "RA_OF_ASC_NODE": 23.2886, "ARG_OF_PERICENTER": 73.0613, "MEAN_ANOMALY": 56.6437, "EPHEMERIS_TYPE": 0, "CLASSIFICATION_TYPE": "U", "NORAD_CAT_ID": 66888, "ELEMENT_SET_NO": 999, "REV_AT_EPOCH": 405, "BSTAR": -0.016374, "MEAN_MOTION_DOT": -0.01946425, "MEAN_MOTION_DDOT": 0}, "tle": {"line1": "1 66888U 25283L   25356.83335647 -.01946425  00000+0 -16374-1 0  9990", "line2": "2 66888  53.1590  23.2886 0001352  73.0613  56.6437 15.72139600  4055"}}, "geometry": {"type": "Point", "coordinates": [64.00291947818994, 41.34501003228751]}}, {"type": "Feature", "properties": {"norad_id": 66889, "name": "STARLINK-35852", "group": "last-30-days", "lat": 42.47925624733382, "lon": 66.07572552728423, "alt_km": 347.78262925452236, "timestamp": "2025-12-22T22:44:19.652138+00:00", "meta": {"OBJECT_NAME": "STARLINK-35852", "OBJECT_ID": "2025-283M", "EPOCH": "2025-12-22T20:00:01.999008", "MEAN_MOTION": 15.72147537, "ECCENTRICITY": 0.0001398, "INCLINATION": 53.1589, "RA_OF_ASC_NODE": 23.2841, "ARG_OF_PERICENTER": 76.402, "MEAN_ANOMALY": 55.2153, "EPHEMERIS_TYPE": 0, "CLASSIFICATION_TYPE": "U", "NORAD_CAT_ID": 66889, "ELEMENT_SET_NO": 999, "REV_AT_EPOCH": 405, "BSTAR": -0.016459, "MEAN_MOTION_DOT": -0.01956041, "MEAN_MOTION_DDOT": 0}, "tle": {"line1": "1 66889U 25283M   25356.83335647 -.01956041  00000+0 -16459-1 0  9990", "line2": "2 66889  53.1589  23.2841 0001398  76.4020  55.2153 15.72147537  4052"}}, "geometry": {"type": "Point", "coordinates": [66.07572552728423, 42.47925624733382]}}]}